EUTELSAT 7A             
1 28187U 04008A   25355.80744406  .00000121  00000+0  00000+0 0  9993
2 28187   5.3794  74.1488 0000868 202.5444 325.3928  1.00270871 79577
EUTELSAT 174A           
1 28924U 05052A   25356.08373520  .00000028  00000+0  00000+0 0  9994
2 28924   3.7694  78.7450 0005842 194.6890  21.6060  1.00269942 50556
EUTELSAT HOTBIRD 13B    
1 29270U 06032A   25356.06225183  .00000177  00000+0  00000+0 0  9992
2 29270   1.2033  84.2958 0003517 182.6433 239.4510  1.00274487 45534
EUTELSAT HOTBIRD 13C    
1 33459U 08065A   25356.03928394 -.00000262  00000+0  00000+0 0  9991
2 33459   2.4940  81.3198 0003455 184.4645 148.8996  1.00270921 45561
EUTELSAT 36B            
1 36101U 09065A   25356.13053549  .00000134  00000+0  00000+0 0  9998
2 36101   0.0532  38.7907 0005657 231.4046 278.2158  1.00270925 58934
EUTELSAT KA-SAT 9A      
1 37258U 10069A   25356.16294588  .00000082  00000+0  00000+0 0  9993
2 37258   0.0498 338.8582 0001291 200.0639 339.7056  1.00263661 42237
EUTELSAT 7 WEST A       
1 37816U 11051A   25355.76246376 -.00000038  00000+0  00000+0 0  9994
2 37816   0.0645 343.7800 0005179 244.5540 129.4300  1.00271630 52098
EUTELSAT 16A            
1 37836U 11057A   25356.14489008  .00000126  00000+0  00000+0 0  9993
2 37836   0.0583 341.7054 0005854 290.9853 246.4179  1.00269957  5554
